[
    {
        "Altitude(m)": 610405.2750831288,
        "Argument of Periapsis(deg)": 0.0,
        "Eccentricity": 0.0,
        "Inclination(deg)": 60.0,
        "Latitude(deg)": 52.11113929611921,
        "Longitude(deg)": -67.5226100885539,
        "Mean Anomaly(deg)": -245.4545,
        "RAAN(deg)": 260.0,
        "Satellite Name": "Test1 1151",
        "Satellite Number": 1151,
        "Semi-Major Axis(m)": 6980739.136638005,
        "Time(s)": 0
    },
    {
        "Altitude(m)": 610321.8480227705,
        "Argument of Periapsis(deg)": 0.00010418945913296404,
        "Eccentricity": 0.0,
        "Inclination(deg)": 60.0,
        "Latitude(deg)": 51.745854568161405,
        "Longitude(deg)": -66.7537181346043,
        "Mean Anomaly(deg)": -244.83439385453818,
        "RAAN(deg)": 259.99957995086027,
        "Satellite Name": "Test1 1151",
        "Satellite Number": 1151,
        "Semi-Major Axis(m)": 6980739.136638005,
        "Time(s)": 10
    }
]